[{"OBJECT_NAME":"STARLINK-36056","OBJECT_ID":"2025-304Q","EPOCH":"2026-03-09T17:00:20.625120","MEAN_MOTION":14.98335753,"ECCENTRICITY":0.00031565,"INCLINATION":70.0025,"RA_OF_ASC_NODE":174.5619,"ARG_OF_PERICENTER":259.5658,"MEAN_ANOMALY":100.5145,"EPHEMERIS_TYPE":0,"CLASSIFICATION_TYPE":"U","NORAD_CAT_ID":67206,"ELEMENT_SET_NO":999,"REV_AT_EPOCH":1385,"BSTAR":0.00033379983,"MEAN_MOTION_DOT":3.893e-5,"MEAN_MOTION_DDOT":0},{"OBJECT_NAME":"OV1-10 R\/B","OBJECT_ID":"1966-111C","EPOCH":"2026-03-09T17:10:30.494208","MEAN_MOTION":14.85448079,"ECCENTRICITY":0.00582808,"INCLINATION":93.4003,"RA_OF_ASC_NODE":162.682,"ARG_OF_PERICENTER":65.7943,"MEAN_ANOMALY":294.9357,"EPHEMERIS_TYPE":0,"CLASSIFICATION_TYPE":"U","NORAD_CAT_ID":2621,"ELEMENT_SET_NO":999,"REV_AT_EPOCH":15959,"BSTAR":0.00014045213,"MEAN_MOTION_DOT":1.241e-5,"MEAN_MOTION_DDOT":0}]
